STARLINK-36723          
1 67915U 26036M   26068.83063384  .00303709  00000+0  13891-2 0  9997
2 67915  42.9988 248.8382 0002019 289.2064  70.8590 15.82104484  3692
STARLINK-36721          
1 67916U 26036N   26068.82913681  .00296666  00000+0  13584-2 0  9993
2 67916  42.9991 248.8268 0002096 285.6993  74.3647 15.82098921  3696
STARLINK-36722          
1 67917U 26036P   26068.76525168  .00134275  00000+0  62900-3 0  9990
2 67917  42.9991 249.2065 0002186 306.6359  53.4311 15.82061259  3686
STARLINK-36341          
1 67918U 26036Q   26067.94303620  .00032654  00000+0  15768-3 0  9995
2 67918  42.9986 254.2224 0002392 283.2687  76.7918 15.81924776  3555
STARLINK-36663          
1 67919U 26036R   26068.83334490  .00007437  00000+0  37800-4 0  9997
2 67919  42.9995 248.7816 0001697 278.2453 114.3584 15.82026670  3671
STARLINK-36375          
1 67920U 26036S   26068.51046693  .00427659  00000+0  19289-2 0  9990
2 67920  42.9988 250.7351 0002070 268.4533  91.6102 15.82081593  3643
STARLINK-36405          
1 67921U 26036T   26067.94152904  .00033355  00000+0  16069-3 0  9990
2 67921  42.9987 254.2109 0002167 254.4983 105.5650 15.81965994  3552
STARLINK-36383          
1 67922U 26036U   26068.82464001  .00321702  00000+0  14677-2 0  9991
2 67922  42.9992 248.7887 0001887 292.9768  67.0904 15.82111138  3699
STARLINK-36406          
1 67923U 26036V   26068.83334490 -.01897902  00000+0 -15186-1 0  9999
2 67923  42.9996 248.8045 0001755 273.8155 109.0975 15.73513479  3670
STARLINK-36714          
1 67924U 26036W   26068.82314291  .00208416  00000+0  96670-3 0  9998
2 67924  42.9993 248.7764 0001964 272.9371  87.1276 15.82059180  3693
STARLINK-36726          
1 67925U 26036X   26067.93853814 -.00192425  00000+0 -93903-3 0  9999
2 67925  42.9988 254.1867 0003330 245.4626 114.5898 15.81838832  3558
STARLINK-36758          
1 67926U 26036Y   26068.82163770  .00382183  00000+0  17275-2 0  9991
2 67926  42.9989 248.7637 0001971 275.1117  84.9530 15.82153427  3697
STARLINK-36728          
1 67927U 26036Z   26068.82014694  .00556881  00000+0  24637-2 0  9990
2 67927  42.9988 248.7512 0001622 288.4269  71.6426 15.82164009  3692
STARLINK-36771          
1 67928U 26036AA  26068.82089095  .00353189  00000+0  16035-2 0  9997
2 67928  42.9992 248.7570 0001964 272.8141  87.2506 15.82134034  3694
STARLINK-36809          
1 67929U 26036AB  26068.81939686  .00391646  00000+0  17709-2 0  9996
2 67929  42.9989 248.7448 0001861 299.1814  60.8872 15.82120796  3693
STARLINK-36865          
1 67930U 26036AC  26068.81789537  .00275657  00000+0  12655-2 0  9994
2 67930  42.9989 248.7319 0002190 283.0281  77.0346 15.82098238  3699
