[{"OBJECT_NAME":"STARLINK-36723","OBJECT_ID":"2026-036M","EPOCH":"2026-03-09T19:56:06.763776","MEAN_MOTION":15.82104484,"ECCENTRICITY":0.0002019,"INCLINATION":42.9988,"RA_OF_ASC_NODE":248.8382,"ARG_OF_PERICENTER":289.2064,"MEAN_ANOMALY":70.859,"EPHEMERIS_TYPE":0,"CLASSIFICATION_TYPE":"U","NORAD_CAT_ID":67915,"ELEMENT_SET_NO":999,"REV_AT_EPOCH":369,"BSTAR":0.0013891,"MEAN_MOTION_DOT":0.00303709,"MEAN_MOTION_DDOT":0},{"OBJECT_NAME":"STARLINK-36721","OBJECT_ID":"2026-036N","EPOCH":"2026-03-09T19:53:57.420384","MEAN_MOTION":15.82098921,"ECCENTRICITY":0.0002096,"INCLINATION":42.9991,"RA_OF_ASC_NODE":248.8268,"ARG_OF_PERICENTER":285.6993,"MEAN_ANOMALY":74.3647,"EPHEMERIS_TYPE":0,"CLASSIFICATION_TYPE":"U","NORAD_CAT_ID":67916,"ELEMENT_SET_NO":999,"REV_AT_EPOCH":369,"BSTAR":0.0013584,"MEAN_MOTION_DOT":0.00296666,"MEAN_MOTION_DDOT":0},{"OBJECT_NAME":"STARLINK-36722","OBJECT_ID":"2026-036P","EPOCH":"2026-03-09T18:21:57.745152","MEAN_MOTION":15.82061259,"ECCENTRICITY":0.0002186,"INCLINATION":42.9991,"RA_OF_ASC_NODE":249.2065,"ARG_OF_PERICENTER":306.6359,"MEAN_ANOMALY":53.4311,"EPHEMERIS_TYPE":0,"CLASSIFICATION_TYPE":"U","NORAD_CAT_ID":67917,"ELEMENT_SET_NO":999,"REV_AT_EPOCH":368,"BSTAR":0.000629,"MEAN_MOTION_DOT":0.00134275,"MEAN_MOTION_DDOT":0},{"OBJECT_NAME":"STARLINK-36341","OBJECT_ID":"2026-036Q","EPOCH":"2026-03-08T22:37:58.327680","MEAN_MOTION":15.81924776,"ECCENTRICITY":0.00023925,"INCLINATION":42.9986,"RA_OF_ASC_NODE":254.2224,"ARG_OF_PERICENTER":283.2687,"MEAN_ANOMALY":76.7918,"EPHEMERIS_TYPE":0,"CLASSIFICATION_TYPE":"U","NORAD_CAT_ID":67918,"ELEMENT_SET_NO":999,"REV_AT_EPOCH":355,"BSTAR":0.00015767743,"MEAN_MOTION_DOT":0.00032654,"MEAN_MOTION_DDOT":0},{"OBJECT_NAME":"STARLINK-36663","OBJECT_ID":"2026-036R","EPOCH":"2026-03-09T20:00:00.999360","MEAN_MOTION":15.8202667,"ECCENTRICITY":0.0001697,"INCLINATION":42.9995,"RA_OF_ASC_NODE":248.7816,"ARG_OF_PERICENTER":278.2453,"MEAN_ANOMALY":114.3584,"EPHEMERIS_TYPE":0,"CLASSIFICATION_TYPE":"U","NORAD_CAT_ID":67919,"ELEMENT_SET_NO":999,"REV_AT_EPOCH":367,"BSTAR":3.78e-5,"MEAN_MOTION_DOT":7.437e-5,"MEAN_MOTION_DDOT":0},{"OBJECT_NAME":"STARLINK-36375","OBJECT_ID":"2026-036S","EPOCH":"2026-03-09T12:15:04.342752","MEAN_MOTION":15.82081593,"ECCENTRICITY":0.00020704,"INCLINATION":42.9988,"RA_OF_ASC_NODE":250.7351,"ARG_OF_PERICENTER":268.4533,"MEAN_ANOMALY":91.6102,"EPHEMERIS_TYPE":0,"CLASSIFICATION_TYPE":"U","NORAD_CAT_ID":67920,"ELEMENT_SET_NO":999,"REV_AT_EPOCH":364,"BSTAR":0.0019289411,"MEAN_MOTION_DOT":0.00427659,"MEAN_MOTION_DDOT":0},{"OBJECT_NAME":"STARLINK-36405","OBJECT_ID":"2026-036T","EPOCH":"2026-03-08T22:35:48.109056","MEAN_MOTION":15.81965994,"ECCENTRICITY":0.00021674,"INCLINATION":42.9987,"RA_OF_ASC_NODE":254.2109,"ARG_OF_PERICENTER":254.4983,"MEAN_ANOMALY":105.565,"EPHEMERIS_TYPE":0,"CLASSIFICATION_TYPE":"U","NORAD_CAT_ID":67921,"ELEMENT_SET_NO":999,"REV_AT_EPOCH":355,"BSTAR":0.00016068886,"MEAN_MOTION_DOT":0.00033355,"MEAN_MOTION_DDOT":0},{"OBJECT_NAME":"STARLINK-36383","OBJECT_ID":"2026-036U","EPOCH":"2026-03-09T19:47:28.896864","MEAN_MOTION":15.82111138,"ECCENTRICITY":0.0001887,"INCLINATION":42.9992,"RA_OF_ASC_NODE":248.7887,"ARG_OF_PERICENTER":292.9768,"MEAN_ANOMALY":67.0904,"EPHEMERIS_TYPE":0,"CLASSIFICATION_TYPE":"U","NORAD_CAT_ID":67922,"ELEMENT_SET_NO":999,"REV_AT_EPOCH":369,"BSTAR":0.0014677,"MEAN_MOTION_DOT":0.00321702,"MEAN_MOTION_DDOT":0},{"OBJECT_NAME":"STARLINK-36406","OBJECT_ID":"2026-036V","EPOCH":"2026-03-09T20:00:00.999360","MEAN_MOTION":15.73513479,"ECCENTRICITY":0.0001755,"INCLINATION":42.9996,"RA_OF_ASC_NODE":248.8045,"ARG_OF_PERICENTER":273.8155,"MEAN_ANOMALY":109.0975,"EPHEMERIS_TYPE":0,"CLASSIFICATION_TYPE":"U","NORAD_CAT_ID":67923,"ELEMENT_SET_NO":999,"REV_AT_EPOCH":367,"BSTAR":-0.015186,"MEAN_MOTION_DOT":-0.01897902,"MEAN_MOTION_DDOT":0},{"OBJECT_NAME":"STARLINK-36714","OBJECT_ID":"2026-036W","EPOCH":"2026-03-09T19:45:19.547424","MEAN_MOTION":15.8205918,"ECCENTRICITY":0.0001964,"INCLINATION":42.9993,"RA_OF_ASC_NODE":248.7764,"ARG_OF_PERICENTER":272.9371,"MEAN_ANOMALY":87.1276,"EPHEMERIS_TYPE":0,"CLASSIFICATION_TYPE":"U","NORAD_CAT_ID":67924,"ELEMENT_SET_NO":999,"REV_AT_EPOCH":369,"BSTAR":0.0009667,"MEAN_MOTION_DOT":0.00208416,"MEAN_MOTION_DDOT":0},{"OBJECT_NAME":"STARLINK-36726","OBJECT_ID":"2026-036X","EPOCH":"2026-03-08T22:31:29.695296","MEAN_MOTION":15.81838832,"ECCENTRICITY":0.000333,"INCLINATION":42.9988,"RA_OF_ASC_NODE":254.1867,"ARG_OF_PERICENTER":245.4626,"MEAN_ANOMALY":114.5898,"EPHEMERIS_TYPE":0,"CLASSIFICATION_TYPE":"U","NORAD_CAT_ID":67925,"ELEMENT_SET_NO":999,"REV_AT_EPOCH":355,"BSTAR":-0.00093902522,"MEAN_MOTION_DOT":-0.00192425,"MEAN_MOTION_DDOT":0},{"OBJECT_NAME":"STARLINK-36758","OBJECT_ID":"2026-036Y","EPOCH":"2026-03-09T19:43:09.497280","MEAN_MOTION":15.82153427,"ECCENTRICITY":0.0001971,"INCLINATION":42.9989,"RA_OF_ASC_NODE":248.7637,"ARG_OF_PERICENTER":275.1117,"MEAN_ANOMALY":84.953,"EPHEMERIS_TYPE":0,"CLASSIFICATION_TYPE":"U","NORAD_CAT_ID":67926,"ELEMENT_SET_NO":999,"REV_AT_EPOCH":369,"BSTAR":0.0017275,"MEAN_MOTION_DOT":0.00382183,"MEAN_MOTION_DDOT":0},{"OBJECT_NAME":"STARLINK-36728","OBJECT_ID":"2026-036Z","EPOCH":"2026-03-09T19:41:00.695616","MEAN_MOTION":15.82164009,"ECCENTRICITY":0.0001622,"INCLINATION":42.9988,"RA_OF_ASC_NODE":248.7512,"ARG_OF_PERICENTER":288.4269,"MEAN_ANOMALY":71.6426,"EPHEMERIS_TYPE":0,"CLASSIFICATION_TYPE":"U","NORAD_CAT_ID":67927,"ELEMENT_SET_NO":999,"REV_AT_EPOCH":369,"BSTAR":0.0024637,"MEAN_MOTION_DOT":0.00556881,"MEAN_MOTION_DDOT":0},{"OBJECT_NAME":"STARLINK-36771","OBJECT_ID":"2026-036AA","EPOCH":"2026-03-09T19:42:04.978080","MEAN_MOTION":15.82134034,"ECCENTRICITY":0.0001964,"INCLINATION":42.9992,"RA_OF_ASC_NODE":248.757,"ARG_OF_PERICENTER":272.8141,"MEAN_ANOMALY":87.2506,"EPHEMERIS_TYPE":0,"CLASSIFICATION_TYPE":"U","NORAD_CAT_ID":67928,"ELEMENT_SET_NO":999,"REV_AT_EPOCH":369,"BSTAR":0.0016035,"MEAN_MOTION_DOT":0.00353189,"MEAN_MOTION_DDOT":0},{"OBJECT_NAME":"STARLINK-36809","OBJECT_ID":"2026-036AB","EPOCH":"2026-03-09T19:39:55.888704","MEAN_MOTION":15.82120796,"ECCENTRICITY":0.0001861,"INCLINATION":42.9989,"RA_OF_ASC_NODE":248.7448,"ARG_OF_PERICENTER":299.1814,"MEAN_ANOMALY":60.8872,"EPHEMERIS_TYPE":0,"CLASSIFICATION_TYPE":"U","NORAD_CAT_ID":67929,"ELEMENT_SET_NO":999,"REV_AT_EPOCH":369,"BSTAR":0.0017709,"MEAN_MOTION_DOT":0.00391646,"MEAN_MOTION_DDOT":0},{"OBJECT_NAME":"STARLINK-36865","OBJECT_ID":"2026-036AC","EPOCH":"2026-03-09T19:37:46.159968","MEAN_MOTION":15.82098238,"ECCENTRICITY":0.000219,"INCLINATION":42.9989,"RA_OF_ASC_NODE":248.7319,"ARG_OF_PERICENTER":283.0281,"MEAN_ANOMALY":77.0346,"EPHEMERIS_TYPE":0,"CLASSIFICATION_TYPE":"U","NORAD_CAT_ID":67930,"ELEMENT_SET_NO":999,"REV_AT_EPOCH":369,"BSTAR":0.0012655,"MEAN_MOTION_DOT":0.00275657,"MEAN_MOTION_DDOT":0}]
